*******************************************************************************
Ephemeris / WWW_USER Fri Mar  7 09:55:11 2025 Pasadena, USA      / Horizons    
*******************************************************************************
Target body name: 62412 (2000 SY178)              {source: JPL#46}
Center body name: Earth (399)                     {source: DE441}
Center-site name: Mauna Kea
*******************************************************************************
Start time      : A.D. 2018-Aug-28 04:50:00.0000 UT      
Stop  time      : A.D. 2018-Aug-28 15:56:00.0000 UT      
Step-size       : 1 minutes
*******************************************************************************
Target pole/equ : undefined
Target radii    : 5.187 km                                                     
Center geodetic : 204.5278, 19.8260847, 4.21024   {E-lon(deg),Lat(deg),Alt(km)}
Center cylindric: 204.5278, 6006.35451, 2151.0229 {E-lon(deg),Dxy(km),Dz(km)}
Center pole/equ : ITRF93                          {East-longitude positive}
Center radii    : 6378.137, 6378.137, 6356.752 km {Equator_a, b, pole_c}       
Target primary  : Sun
Vis. interferer : MOON (R_eq= 1737.400) km        {source: DE441}
Rel. light bend : Sun                             {source: DE441}
Rel. lght bnd GM: 1.3271E+11 km^3/s^2                                          
Small-body perts: Yes                             {source: SB441-N16}
Atmos refraction: NO (AIRLESS)
RA format       : HMS
Time format     : CAL 
Calendar mode   : Mixed Julian/Gregorian
RTS-only print  : NO       
EOP file        : eop.250306.p250602                                           
EOP coverage    : DATA-BASED 1962-JAN-20 TO 2025-MAR-06. PREDICTS-> 2025-JUN-01
Units conversion: 1 au= 149597870.700 km, c= 299792.458 km/s, 1 day= 86400.0 s 
Table cut-offs 1: Elevation (-90.0deg=NO ),Airmass (>38.000=NO), Daylight (YES)
Table cut-offs 2: Solar elongation (  0.0,180.0=NO ),Local Hour Angle( 0.0=NO )
Table cut-offs 3: RA/DEC angular rate (     0.0=NO )                           
*******************************************************************************
Initial IAU76/J2000 heliocentric ecliptic osculating elements (au, days, deg.):
  EPOCH=  2458170.5 ! 2018-Feb-21.00 (TDB)         Residual RMS= .27602        
   EC= .08138541630493452  QR= 2.896136740642169   TP= 2458420.7194902785      
   OM= 329.1508619589129   W=  163.0731028483118   IN= 4.736237123453259       
  Equivalent ICRF heliocentric cartesian coordinates (au, au/d):
   X= 4.513940497926217E-01  Y= 2.603132519717001E+00  Z= 1.377127424929858E+00
  VX=-1.018381435292277E-02 VY= 1.034394081524039E-03 VZ= 5.207836918344824E-05
Asteroid physical parameters (km, seconds, rotational period in hours):        
   GM= n.a.                RAD= 5.187              ROTPER= 3.33                
   H= 13.88                G= .150                 B-V= n.a.                   
                           ALBEDO= .065            STYP= n.a.                  
*******************************************************************************
 Date__(UT)__HR:MN     R.A._________(ICRF)_________DEC
******************************************************
$$SOE
 2018-Aug-28 10:59  m  08 45 17.706691 +19 54 27.02293
 2018-Aug-28 11:00  m  08 45 17.773132 +19 54 26.74967
 2018-Aug-28 11:01  m  08 45 17.839570 +19 54 26.47643
 2018-Aug-28 11:02  m  08 45 17.906007 +19 54 26.20320
 2018-Aug-28 11:03  m  08 45 17.972442 +19 54 25.92998
 2018-Aug-28 11:04  m  08 45 18.038875 +19 54 25.65676
 2018-Aug-28 11:05  m  08 45 18.105306 +19 54 25.38356
 2018-Aug-28 11:06  m  08 45 18.171736 +19 54 25.11037
 2018-Aug-28 11:07  m  08 45 18.238163 +19 54 24.83719
 2018-Aug-28 11:08  m  08 45 18.304589 +19 54 24.56402
 2018-Aug-28 11:09  m  08 45 18.371012 +19 54 24.29086
 2018-Aug-28 11:10  m  08 45 18.437434 +19 54 24.01771
 2018-Aug-28 11:11  m  08 45 18.503854 +19 54 23.74457
 2018-Aug-28 11:12  m  08 45 18.570272 +19 54 23.47144
 2018-Aug-28 11:13  m  08 45 18.636688 +19 54 23.19832
 2018-Aug-28 11:14  m  08 45 18.703102 +19 54 22.92521
 2018-Aug-28 11:15  m  08 45 18.769514 +19 54 22.65211
 2018-Aug-28 11:16  m  08 45 18.835924 +19 54 22.37902
 2018-Aug-28 11:17  m  08 45 18.902332 +19 54 22.10594
 2018-Aug-28 11:18  m  08 45 18.968738 +19 54 21.83287
 2018-Aug-28 11:19  m  08 45 19.035143 +19 54 21.55981
 2018-Aug-28 11:20  m  08 45 19.101545 +19 54 21.28677
 2018-Aug-28 11:21  m  08 45 19.167945 +19 54 21.01373
 2018-Aug-28 11:22  m  08 45 19.234343 +19 54 20.74070
 2018-Aug-28 11:23  m  08 45 19.300739 +19 54 20.46768
 2018-Aug-28 11:24  m  08 45 19.367133 +19 54 20.19466
 2018-Aug-28 11:25  m  08 45 19.433525 +19 54 19.92166
 2018-Aug-28 11:26  m  08 45 19.499914 +19 54 19.64867
 2018-Aug-28 11:27  m  08 45 19.566302 +19 54 19.37569
 2018-Aug-28 11:28  m  08 45 19.632688 +19 54 19.10272
 2018-Aug-28 11:29  m  08 45 19.699071 +19 54 18.82976
 2018-Aug-28 11:30  m  08 45 19.765453 +19 54 18.55680
 2018-Aug-28 11:31  m  08 45 19.831832 +19 54 18.28386
 2018-Aug-28 11:32  m  08 45 19.898209 +19 54 18.01092
 2018-Aug-28 11:33  m  08 45 19.964584 +19 54 17.73800
 2018-Aug-28 11:34  m  08 45 20.030957 +19 54 17.46508
 2018-Aug-28 11:35  m  08 45 20.097328 +19 54 17.19218
 2018-Aug-28 11:36  m  08 45 20.163697 +19 54 16.91928
 2018-Aug-28 11:37  m  08 45 20.230063 +19 54 16.64639
 2018-Aug-28 11:38  m  08 45 20.296427 +19 54 16.37351
 2018-Aug-28 11:39  m  08 45 20.362789 +19 54 16.10064
 2018-Aug-28 11:40  m  08 45 20.429149 +19 54 15.82778
 2018-Aug-28 11:41  m  08 45 20.495506 +19 54 15.55493
 2018-Aug-28 11:42  m  08 45 20.561862 +19 54 15.28209
 2018-Aug-28 11:43  m  08 45 20.628215 +19 54 15.00925
 2018-Aug-28 11:44  m  08 45 20.694566 +19 54 14.73643
 2018-Aug-28 11:45  m  08 45 20.760914 +19 54 14.46361
 2018-Aug-28 11:46  m  08 45 20.827261 +19 54 14.19080
 2018-Aug-28 11:47  m  08 45 20.893605 +19 54 13.91800
 2018-Aug-28 11:48  m  08 45 20.959947 +19 54 13.64521
 2018-Aug-28 11:49  m  08 45 21.026286 +19 54 13.37243
 2018-Aug-28 11:50  m  08 45 21.092623 +19 54 13.09966
 2018-Aug-28 11:51  m  08 45 21.158958 +19 54 12.82689
 2018-Aug-28 11:52  m  08 45 21.225291 +19 54 12.55414
 2018-Aug-28 11:53  m  08 45 21.291621 +19 54 12.28139
 2018-Aug-28 11:54  m  08 45 21.357949 +19 54 12.00865
 2018-Aug-28 11:55  m  08 45 21.424275 +19 54 11.73592
 2018-Aug-28 11:56  m  08 45 21.490598 +19 54 11.46320
 2018-Aug-28 11:57  m  08 45 21.556919 +19 54 11.19048
 2018-Aug-28 11:58  m  08 45 21.623237 +19 54 10.91778
 2018-Aug-28 11:59  m  08 45 21.689554 +19 54 10.64508
 2018-Aug-28 12:00  m  08 45 21.755867 +19 54 10.37239
 2018-Aug-28 12:01  m  08 45 21.822179 +19 54 10.09971
 2018-Aug-28 12:02  m  08 45 21.888488 +19 54 09.82703
 2018-Aug-28 12:03  m  08 45 21.954794 +19 54 09.55437
 2018-Aug-28 12:04  m  08 45 22.021098 +19 54 09.28171
 2018-Aug-28 12:05  m  08 45 22.087400 +19 54 09.00906
 2018-Aug-28 12:06  m  08 45 22.153699 +19 54 08.73642
 2018-Aug-28 12:07  m  08 45 22.219996 +19 54 08.46378
 2018-Aug-28 12:08  m  08 45 22.286291 +19 54 08.19116
 2018-Aug-28 12:09  m  08 45 22.352583 +19 54 07.91854
 2018-Aug-28 12:10  m  08 45 22.418872 +19 54 07.64593
 2018-Aug-28 12:11  m  08 45 22.485159 +19 54 07.37332
 2018-Aug-28 12:12  m  08 45 22.551444 +19 54 07.10073
 2018-Aug-28 12:13  m  08 45 22.617726 +19 54 06.82814
 2018-Aug-28 12:14  m  08 45 22.684005 +19 54 06.55556
 2018-Aug-28 12:15  m  08 45 22.750282 +19 54 06.28298
 2018-Aug-28 12:16  m  08 45 22.816557 +19 54 06.01042
 2018-Aug-28 12:17  m  08 45 22.882829 +19 54 05.73786
 2018-Aug-28 12:18  m  08 45 22.949098 +19 54 05.46530
 2018-Aug-28 12:19  m  08 45 23.015365 +19 54 05.19276
 2018-Aug-28 12:20  m  08 45 23.081629 +19 54 04.92022
 2018-Aug-28 12:21  m  08 45 23.147891 +19 54 04.64769
 2018-Aug-28 12:22  m  08 45 23.214150 +19 54 04.37517
 2018-Aug-28 12:23  m  08 45 23.280407 +19 54 04.10265
 2018-Aug-28 12:24  m  08 45 23.346661 +19 54 03.83014
 2018-Aug-28 12:25  m  08 45 23.412913 +19 54 03.55764
 2018-Aug-28 12:26  m  08 45 23.479162 +19 54 03.28514
 2018-Aug-28 12:27  m  08 45 23.545408 +19 54 03.01265
 2018-Aug-28 12:28  m  08 45 23.611652 +19 54 02.74017
 2018-Aug-28 12:29  m  08 45 23.677893 +19 54 02.46769
 2018-Aug-28 12:30  m  08 45 23.744131 +19 54 02.19523
 2018-Aug-28 12:31  m  08 45 23.810367 +19 54 01.92276
 2018-Aug-28 12:32  m  08 45 23.876601 +19 54 01.65031
 2018-Aug-28 12:33  m  08 45 23.942831 +19 54 01.37786
 2018-Aug-28 12:34  m  08 45 24.009059 +19 54 01.10541
 2018-Aug-28 12:35  m  08 45 24.075285 +19 54 00.83298
 2018-Aug-28 12:36  m  08 45 24.141507 +19 54 00.56055
 2018-Aug-28 12:37  m  08 45 24.207727 +19 54 00.28812
 2018-Aug-28 12:38  m  08 45 24.273944 +19 54 00.01570
 2018-Aug-28 12:39  m  08 45 24.340159 +19 53 59.74329
 2018-Aug-28 12:40  m  08 45 24.406371 +19 53 59.47089
 2018-Aug-28 12:41  m  08 45 24.472580 +19 53 59.19849
 2018-Aug-28 12:42  m  08 45 24.538787 +19 53 58.92609
 2018-Aug-28 12:43  m  08 45 24.604991 +19 53 58.65370
 2018-Aug-28 12:44  m  08 45 24.671192 +19 53 58.38132
 2018-Aug-28 12:45  m  08 45 24.737390 +19 53 58.10894
 2018-Aug-28 12:46  m  08 45 24.803586 +19 53 57.83657
 2018-Aug-28 12:47  m  08 45 24.869779 +19 53 57.56421
 2018-Aug-28 12:48  m  08 45 24.935969 +19 53 57.29185
 2018-Aug-28 12:49  m  08 45 25.002157 +19 53 57.01950
 2018-Aug-28 12:50  m  08 45 25.068341 +19 53 56.74715
 2018-Aug-28 12:51  m  08 45 25.134523 +19 53 56.47481
 2018-Aug-28 12:52  m  08 45 25.200702 +19 53 56.20247
 2018-Aug-28 12:53  m  08 45 25.266879 +19 53 55.93014
 2018-Aug-28 12:54  m  08 45 25.333053 +19 53 55.65781
 2018-Aug-28 12:55  m  08 45 25.399223 +19 53 55.38549
 2018-Aug-28 12:56  m  08 45 25.465391 +19 53 55.11317
 2018-Aug-28 12:57  m  08 45 25.531557 +19 53 54.84086
 2018-Aug-28 12:58  m  08 45 25.597719 +19 53 54.56856
 2018-Aug-28 12:59  m  08 45 25.663879 +19 53 54.29626
 2018-Aug-28 13:00  m  08 45 25.730036 +19 53 54.02396
 2018-Aug-28 13:01  m  08 45 25.796190 +19 53 53.75167
